IRIDIUM 119             
1 42959U 17061E   24094.48637868  .00000283  00000+0  94134-4 0  9990
2 42959  86.4030   1.5352 0002364  88.3577 271.7890 14.34218622339474
IRIDIUM 107             
1 42960U 17061F   24094.43565340  .00000396  00000+0  13417-3 0  9991
2 42960  86.4026   1.5732 0002488  87.5856 272.5624 14.34218596339475
IRIDIUM 132             
1 42961U 17061G   24094.23267010  .00000140  00000+0  42897-4 0  9995
2 42961  86.4030   1.6426 0002410  84.6665 275.4805 14.34218474339448
IRIDIUM 136             
1 42962U 17061H   24094.47368956  .00000330  00000+0  11065-3 0  9996
2 42962  86.4029   1.5448 0002239  92.9180 267.2272 14.34217882339497
IRIDIUM 139             
1 42963U 17061J   24094.75911471  .00000368  00000+0  12435-3 0  9997
2 42963  86.4031   1.4747 0002464  82.6521 277.4955 14.34216048339547
IRIDIUM 125             
1 42964U 17061K   24094.46734452  .00000299  00000+0  99551-4 0  9996
2 42964  86.4031   1.6426 0002461  90.9835 269.1643 14.34219726339516
IRIDIUM 135             
1 43070U 17083A   24094.51123950  .00000119  00000+0  35579-4 0  9991
2 43070  86.3922 298.3146 0001913  78.7592 281.3819 14.34214009328813
IRIDIUM 138             
1 43071U 17083B   24094.53662264  .00000116  00000+0  34469-4 0  9994
2 43071  86.3909 298.0305 0002330  94.3424 265.8038 14.34211371328803
